LMRST-SAT               
1 40971U 15058H   26068.72417700  .00004653  00000+0  42420-3 0  9992
2 40971  64.7755 224.0879 0131013  97.8444 263.7563 14.89988841 98733
STARLINK-4211           
1 52873U 22062AV  26068.22571263  .00000241  00000+0  33241-4 0  9990
2 52873  53.2203  16.2045 0001416  96.2205 263.8949 15.08830167205991
